[{"OBJECT_NAME":"STARLINK-5607","OBJECT_ID":"2023-014P","EPOCH":"2026-03-09T23:07:47.129088","MEAN_MOTION":14.98339315,"ECCENTRICITY":0.00036319,"INCLINATION":69.9998,"RA_OF_ASC_NODE":63.8818,"ARG_OF_PERICENTER":270.1133,"MEAN_ANOMALY":89.961,"EPHEMERIS_TYPE":0,"CLASSIFICATION_TYPE":"U","NORAD_CAT_ID":55404,"ELEMENT_SET_NO":999,"REV_AT_EPOCH":17209,"BSTAR":-2.5546071e-5,"MEAN_MOTION_DOT":-3.98e-6,"MEAN_MOTION_DDOT":0},{"OBJECT_NAME":"CZ-6A DEB","OBJECT_ID":"2024-140PM","EPOCH":"2026-03-09T13:51:31.286016","MEAN_MOTION":14.89023636,"ECCENTRICITY":0.005735,"INCLINATION":89.0306,"RA_OF_ASC_NODE":283.4654,"ARG_OF_PERICENTER":193.2665,"MEAN_ANOMALY":166.7059,"EPHEMERIS_TYPE":0,"CLASSIFICATION_TYPE":"U","NORAD_CAT_ID":61119,"ELEMENT_SET_NO":999,"REV_AT_EPOCH":8334,"BSTAR":0.0034209,"MEAN_MOTION_DOT":0.00033325,"MEAN_MOTION_DDOT":0}]
